{"type":"FeatureCollection","crs":{"type":"name","properties":{"name":"urn:ogc:def:crs:OGC:1.3:CRS84"}},"features":[{"type":"Feature","properties":{"shapeName":"Chiang Rai Province","shapeISO":"TH-57","shapeID":"36821470B41943429581493","shapeGroup":"THA","shapeType":"ADM1"},"geometry":{"type":"Polygon","coordinates":[[[100.406563,19.735507],[100.404145,19.744355],[100.403966,19.752539],[100.415159,19.781563],[100.427428,19.787516],[100.433159,19.787434],[100.438442,19.791651],[100.442651,19.805873],[100.44086,19.809346],[100.443725,19.814969],[100.444263,19.822329],[100.44883,19.825636],[100.442293,19.835559],[100.449278,19.847301],[100.462173,19.857389],[100.473724,19.855983],[100.489485,19.865906],[100.496559,19.864583],[100.500769,19.870125],[100.499873,19.87707],[100.501127,19.884264],[100.51232,19.890714],[100.515455,19.899313],[100.52029,19.903365],[100.513932,19.909401],[100.519842,19.914445],[100.52226,19.928915],[100.516798,19.93553],[100.516081,19.939499],[100.518141,19.946197],[100.525842,19.958683],[100.525574,19.965215],[100.529066,19.971251],[100.530588,19.980347],[100.537484,19.993246],[100.536499,19.995561],[100.538558,20.001176],[100.540796,20.002746],[100.543662,20.011589],[100.540975,20.018036],[100.541692,20.022168],[100.545632,20.026879],[100.551632,20.030846],[100.550557,20.042499],[100.554229,20.047458],[100.553691,20.052583],[100.560945,20.077046],[100.559781,20.080104],[100.560676,20.086633],[100.564706,20.093906],[100.569989,20.098783],[100.568736,20.100932],[100.570258,20.103163],[100.568825,20.115395],[100.572138,20.126883],[100.571243,20.136883],[100.573392,20.141264],[100.572138,20.143826],[100.575004,20.148702],[100.577064,20.165728],[100.578496,20.167794],[100.564885,20.175976],[100.560049,20.175811],[100.557184,20.174075],[100.553423,20.17548],[100.551184,20.174819],[100.545005,20.168042],[100.540707,20.159446],[100.53005,20.1449],[100.523782,20.142834],[100.518051,20.143908],[100.513663,20.145727],[100.507395,20.151016],[100.489709,20.1765],[100.485142,20.181296],[100.481381,20.182867],[100.476008,20.190392],[100.465083,20.197503],[100.456038,20.19866],[100.452904,20.204035],[100.456218,20.224955],[100.453352,20.230164],[100.435442,20.241906],[100.418562,20.249883],[100.414443,20.253687],[100.410503,20.260715],[100.408175,20.276013],[100.405757,20.282049],[100.395638,20.293461],[100.392324,20.301481],[100.382384,20.313967],[100.380504,20.325957],[100.376653,20.335715],[100.374862,20.350682],[100.369042,20.354733],[100.359191,20.35523],[100.358206,20.363333],[100.359281,20.368543],[100.355251,20.377969],[100.352027,20.378631],[100.35149,20.38045],[100.330536,20.398228],[100.319432,20.398724],[100.311999,20.402114],[100.299015,20.397153],[100.272329,20.400626],[100.26427,20.397732],[100.249731,20.386368],[100.248362,20.383272],[100.249149,20.375278],[100.246994,20.369212],[100.23081,20.359228],[100.226875,20.355721],[100.224514,20.351077],[100.224445,20.344915],[100.228688,20.332246],[100.226977,20.326496],[100.221229,20.317744],[100.217636,20.314395],[100.213428,20.312847],[100.194438,20.310824],[100.180752,20.306622],[100.171514,20.302073],[100.167476,20.298123],[100.168434,20.285327],[100.176441,20.276291],[100.180615,20.2634],[100.17603,20.251142],[100.171684,20.245772],[100.160296,20.24412],[100.112457,20.250004],[100.105135,20.253827],[100.095842,20.262767],[100.091517,20.268851],[100.090593,20.275865],[100.098594,20.308476],[100.093912,20.327048],[100.086111,20.345183],[100.084653,20.352275],[100.0807261,20.3570931],[100.079076,20.3620072],[100.0800134,20.365592],[100.0858445,20.3683984],[100.0819937,20.3691737],[100.0797889,20.3724455],[100.0765939,20.3740542],[100.0785878,20.38032],[100.0766966,20.3806318],[100.0701582,20.374535],[100.0673794,20.3744535],[100.0676412,20.3781934],[100.0655968,20.3817139],[100.0712429,20.3862617],[100.0716017,20.3896689],[100.0695086,20.3896688],[100.0666888,20.3856141],[100.0635937,20.3851715],[100.0638067,20.3910552],[100.0613176,20.3925677],[100.0596144,20.396187],[100.0572846,20.3964836],[100.0550375,20.3949817],[100.0560363,20.3890504],[100.0537543,20.3877405],[100.0513731,20.3932219],[100.044932,20.3918356],[100.0442234,20.3968255],[100.041796,20.3987105],[100.0407322,20.3981891],[100.0413213,20.3939743],[100.0395838,20.392806],[100.0392491,20.3955966],[100.0358284,20.3975362],[100.0367529,20.4020577],[100.0332,20.3988609],[100.0323819,20.4003336],[100.0339966,20.4025931],[100.0313654,20.3999585],[100.0289581,20.400776],[100.0285139,20.4039001],[100.0250362,20.4041533],[100.0244997,20.408632],[100.0236578,20.4059972],[100.019786,20.4063436],[100.0169836,20.4098839],[100.0192469,20.4113196],[100.0188874,20.4133715],[100.0164054,20.4129413],[100.0141969,20.4150142],[100.0104763,20.4132261],[100.0124185,20.4165471],[100.0092613,20.4167791],[100.0087245,20.4191211],[100.0054804,20.417104],[100.0054587,20.4138107],[100.0035393,20.4128069],[100.0036846,20.4161741],[99.9999216,20.4160017],[99.9990668,20.4193865],[99.9959669,20.4184185],[99.9957194,20.4220298],[99.990529,20.4232655],[99.9896925,20.4282083],[99.984731,20.4294433],[99.9894865,20.4311858],[99.9865503,20.4329406],[99.9862153,20.4356518],[99.983501,20.4386007],[99.9833696,20.4423262],[99.9817991,20.4430572],[99.9791249,20.4414486],[99.9743883,20.4439599],[99.9774153,20.4452406],[99.979424,20.4494098],[99.9764047,20.4490587],[99.9756406,20.4476955],[99.9755094,20.451472],[99.9715952,20.4543958],[99.9665328,20.4550612],[99.9674672,20.4569795],[99.9702012,20.4575389],[99.9695322,20.4603722],[99.9677732,20.4602904],[99.9669502,20.4576953],[99.9641395,20.4582564],[99.9656484,20.462699],[99.9640838,20.4638593],[99.9605603,20.4618815],[99.9603321,20.4648337],[99.954527,20.4642958],[99.9518182,20.4613864],[99.9410282,20.4568654],[99.940826,20.4555941],[99.9339204,20.454525],[99.9324757,20.4564609],[99.9289795,20.4545539],[99.9263502,20.449642],[99.9243507,20.4480535],[99.9225429,20.4485109],[99.9213681,20.4455051],[99.920499,20.4474754],[99.9162969,20.4474151],[99.9157666,20.4497031],[99.9075788,20.449954],[99.9071492,20.4487684],[99.9005935,20.4473789],[99.897114,20.4488579],[99.8956699,20.4462421],[99.8931454,20.446126],[99.8942356,20.4445924],[99.893321,20.4430678],[99.8921645,20.4450281],[99.888573,20.4458519],[99.8733444,20.4438561],[99.8694193,20.4461937],[99.8649707,20.446061],[99.8619448,20.4432666],[99.8595177,20.4254893],[99.8562032,20.4162115],[99.8499231,20.4127781],[99.8447768,20.4060339],[99.8450385,20.393362],[99.8421165,20.3901734],[99.8371883,20.3743114],[99.8326527,20.3705501],[99.8280298,20.3637631],[99.826765,20.3571393],[99.823843,20.3533366],[99.8124832,20.3433185],[99.812265,20.3404725],[99.8091457,20.3378389],[99.7988533,20.3352626],[99.7893022,20.3369801],[99.776264,20.334784],[99.770659,20.341817],[99.761237,20.342352],[99.758128,20.339111],[99.744267,20.346239],[99.739636,20.34489],[99.730143,20.350117],[99.727743,20.346864],[99.723127,20.344876],[99.720896,20.345444],[99.719712,20.342944],[99.717542,20.342304],[99.716542,20.339733],[99.718573,20.337503],[99.717958,20.333612],[99.719942,20.331282],[99.718465,20.328981],[99.713711,20.328399],[99.709819,20.323583],[99.706218,20.326211],[99.698402,20.326637],[99.694095,20.323498],[99.685909,20.320714],[99.684678,20.317972],[99.681463,20.316183],[99.673847,20.318441],[99.671478,20.322404],[99.666739,20.324009],[99.665339,20.326708],[99.661354,20.325728],[99.657231,20.327717],[99.653477,20.33418],[99.649168,20.335756],[99.647353,20.341423],[99.643353,20.343327],[99.64166,20.341452],[99.63329,20.341864],[99.629352,20.335813],[99.622597,20.338469],[99.618274,20.335443],[99.614919,20.336722],[99.612689,20.331765],[99.605688,20.334009],[99.604057,20.336964],[99.601442,20.3382],[99.597119,20.338498],[99.59178,20.344236],[99.585826,20.342134],[99.57664,20.344776],[99.575578,20.347758],[99.572655,20.349662],[99.560624,20.352844],[99.557685,20.357986],[99.539684,20.355983],[99.534591,20.35675],[99.525437,20.362617],[99.519651,20.361267],[99.516267,20.362674],[99.513559,20.367361],[99.509882,20.36871],[99.508913,20.373426],[99.501235,20.379421],[99.499113,20.384158],[99.495487,20.385157],[99.49306,20.383105],[99.488966,20.383186],[99.4811,20.387451],[99.477825,20.391716],[99.473293,20.393984],[99.45841,20.392796],[99.457445,20.391825],[99.460135,20.385913],[99.459989,20.379785],[99.457883,20.378273],[99.457532,20.366935],[99.455749,20.362399],[99.467503,20.358836],[99.468292,20.355218],[99.473468,20.350224],[99.479492,20.349711],[99.489551,20.345743],[99.496247,20.340452],[99.497241,20.335836],[99.500358,20.336879],[99.507097,20.32577],[99.506682,20.322404],[99.509543,20.317533],[99.51002,20.313313],[99.505851,20.307064],[99.506389,20.296013],[99.504943,20.294124],[99.509497,20.289621],[99.509343,20.285246],[99.513913,20.279706],[99.513882,20.27614],[99.517944,20.266851],[99.519236,20.259877],[99.515774,20.256326],[99.521406,20.250275],[99.521179,20.243302],[99.523402,20.238224],[99.522577,20.233442],[99.533738,20.232194],[99.541508,20.225042],[99.544671,20.217742],[99.555672,20.216769],[99.563785,20.205936],[99.560828,20.203883],[99.560599,20.201387],[99.556542,20.195695],[99.553907,20.188247],[99.554847,20.184545],[99.551225,20.176505],[99.545885,20.172823],[99.541622,20.173119],[99.538024,20.16529],[99.539307,20.16163],[99.53729,20.154775],[99.538597,20.147665],[99.530621,20.146607],[99.52464,20.150585],[99.517696,20.152743],[99.511393,20.151727],[99.513272,20.147538],[99.5258179,20.1380501],[99.5352631,20.133606],[99.5552521,20.1288834],[99.5652618,20.1249962],[99.5666656,20.1216621],[99.5669403,20.117218],[99.5635986,20.1108284],[99.5358124,20.0922203],[99.5063782,20.0830536],[99.5019379,20.078331],[99.5,20.0711098],[99.5030518,20.060276],[99.5072174,20.0558319],[99.5163879,20.0497208],[99.5327606,20.0424957],[99.5460968,20.0274963],[99.5549774,20.0227737],[99.5808258,20.0199966],[99.587204,20.0172195],[99.5908203,20.0116653],[99.5916595,20.0080528],[99.5888824,19.9961052],[99.5844269,19.9908295],[99.5827637,19.9836044],[99.5883179,19.9655495],[99.5699921,19.9463844],[99.5680542,19.9344406],[99.5682198,19.9209982],[99.5666656,19.9174957],[99.5644226,19.9152718],[99.560257,19.9144402],[99.552475,19.9147186],[99.5422058,19.9236069],[99.5335999,19.9341621],[99.5310974,19.9530487],[99.5260925,19.9616623],[99.5230408,19.9641609],[99.5188751,19.9641609],[99.5119324,19.9666634],[99.5033264,19.9727707],[99.4991455,19.9736061],[99.4799805,19.969162],[99.4713745,19.9697151],[99.4530487,19.9761047],[99.4416504,19.9727707],[99.4319305,19.9641609],[99.4191437,19.9580498],[99.4163818,19.9474945],[99.4194336,19.9311066],[99.4197083,19.9186058],[99.4122009,19.9116631],[99.3983307,19.9063835],[99.3930511,19.9024963],[99.3894348,19.8963852],[99.3844299,19.8919411],[99.3833313,19.8841629],[99.3916626,19.8566628],[99.3991547,19.8491631],[99.4058228,19.8469429],[99.4138794,19.8402748],[99.4094238,19.8311081],[99.4102631,19.8274956],[99.418869,19.8172188],[99.4191437,19.8133316],[99.4133148,19.810276],[99.3927612,19.8077736],[99.3844299,19.8011093],[99.3808136,19.7952766],[99.3808136,19.7866631],[99.3791504,19.7833328],[99.3691406,19.7744408],[99.3660889,19.768055],[99.3663788,19.7594414],[99.3633118,19.7486038],[99.3658142,19.7324944],[99.3633118,19.7258263],[99.3583221,19.7213821],[99.3510895,19.719162],[99.3486023,19.716938],[99.348877,19.7083282],[99.3469391,19.7049942],[99.3424835,19.7047157],[99.3358154,19.7074966],[99.3313751,19.7077713],[99.3241577,19.7055511],[99.3155365,19.6997185],[99.3052521,19.6822166],[99.2805481,19.6688843],[99.2702637,19.660553],[99.2627716,19.6486053],[99.2599945,19.6333313],[99.2597198,19.6286087],[99.2658234,19.6161079],[99.2664775,19.6112698],[99.2840655,19.6032],[99.2910336,19.5957197],[99.29233,19.5899947],[99.2902234,19.5803763],[99.2949228,19.5759486],[99.2965242,19.5660812],[99.3071126,19.5546467],[99.3166223,19.555679],[99.3212367,19.5415404],[99.3252716,19.540554],[99.3252716,19.5363846],[99.3212106,19.5350784],[99.3015094,19.5171595],[99.2987888,19.5125624],[99.2972107,19.5036087],[99.2933197,19.4983292],[99.2935944,19.4941597],[99.2997131,19.4858284],[99.3076463,19.4892277],[99.305542,19.4830513],[99.3080845,19.4800561],[99.305981,19.4777425],[99.3065069,19.4738588],[99.3108016,19.4725366],[99.3181276,19.4529184],[99.3108063,19.4380493],[99.310257,19.4299965],[99.3152618,19.4163857],[99.3213806,19.4086075],[99.3255463,19.3988838],[99.3274841,19.3827744],[99.3341522,19.3663864],[99.3319397,19.3591614],[99.3232556,19.3575673],[99.3170942,19.3516775],[99.3244324,19.3319397],[99.3338776,19.2955513],[99.3422089,19.2766647],[99.3438721,19.264164],[99.3363264,19.2611856],[99.3374658,19.2549799],[99.3290518,19.2470363],[99.3226536,19.2437264],[99.3174174,19.2277513],[99.3097099,19.2246544],[99.3100726,19.2211285],[99.3084492,19.2191576],[99.3101886,19.2157631],[99.3094928,19.2135732],[99.3132035,19.2080981],[99.309029,19.2055795],[99.3056662,19.1978045],[99.3057821,19.1948477],[99.3031151,19.1937526],[99.3055502,19.1880578],[99.3042747,19.18302],[99.3050864,19.1763392],[99.3169142,19.1695485],[99.3187695,19.1642911],[99.3179578,19.1579381],[99.322944,19.1400827],[99.3225961,19.1342765],[99.3193493,19.1295657],[99.3214365,19.1281415],[99.3217598,19.1244303],[99.323681,19.1236106],[99.3234914,19.120069],[99.3290671,19.1161954],[99.3290671,19.1126316],[99.3359547,19.1055037],[99.3371026,19.1007],[99.3426302,19.0934166],[99.345582,19.0854355],[99.3516497,19.0869853],[99.3534536,19.0849706],[99.3639489,19.0810962],[99.3657528,19.0772216],[99.363293,19.0719521],[99.3637849,19.0690073],[99.3700166,19.0673024],[99.3754282,19.0679223],[99.3844477,19.0631175],[99.3831358,19.0595525],[99.3837917,19.0562975],[99.3811679,19.0500973],[99.3873995,19.0352157],[99.3875635,19.0259141],[99.3892034,19.0246739],[99.3900234,19.0197127],[99.396583,19.0186275],[99.396255,19.0088598],[99.4012801,18.9999594],[99.4093742,19.0021926],[99.4196536,19.002147],[99.4270332,19.0081939],[99.4370366,19.0078838],[99.4365446,19.0125352],[99.4532946,19.0284243],[99.4662959,19.0382406],[99.4749881,19.0517385],[99.4830517,19.0690061],[99.4902978,19.0729972],[99.5087628,19.0758995],[99.5264076,19.0743602],[99.5350264,19.0832752],[99.5388947,19.0839807],[99.5350942,19.0944984],[99.5387589,19.1018092],[99.536723,19.1068752],[99.5405913,19.1125823],[99.5453418,19.1123899],[99.5516532,19.1210464],[99.5519925,19.1259836],[99.5566073,19.1282918],[99.5595933,19.133357],[99.5597291,19.1395761],[99.558236,19.14291],[99.5531462,19.1436793],[99.5494852,19.1561187],[99.5429422,19.1598998],[99.5387844,19.1590597],[99.5350572,19.1614478],[99.5352805,19.1633075],[99.5411225,19.1759076],[99.5438996,19.1872978],[99.5430604,19.1956288],[99.5497131,19.2061043],[99.5549774,19.2205505],[99.555542,19.2283287],[99.5538635,19.2402725],[99.5549774,19.2449951],[99.5583191,19.2502747],[99.5697174,19.2583313],[99.571106,19.2780533],[99.5813751,19.2922211],[99.5822144,19.2955513],[99.5794373,19.3152733],[99.5830536,19.3258286],[99.5819397,19.3380508],[99.5847168,19.3538857],[99.5838776,19.3663864],[99.581665,19.3772202],[99.5705414,19.3949966],[99.5697174,19.4027748],[99.5722198,19.4233284],[99.5744324,19.4299965],[99.5883179,19.44944],[99.5885925,19.4572182],[99.5861053,19.4644394],[99.587204,19.468605],[99.6158142,19.5049973],[99.6266479,19.5088882],[99.6447144,19.5036087],[99.6461029,19.4997177],[99.6444397,19.4833298],[99.6558228,19.4713821],[99.6541595,19.4636078],[99.6569366,19.4616623],[99.6677551,19.4649963],[99.6713715,19.4641609],[99.6722107,19.4558296],[99.6746979,19.4536057],[99.6794281,19.4538841],[99.6858063,19.4505501],[99.6883087,19.4391632],[99.6871948,19.4297943],[99.7055511,19.4299965],[99.7088776,19.431385],[99.7144318,19.4358292],[99.7174835,19.4416618],[99.7277679,19.4505501],[99.7380371,19.4544411],[99.7877655,19.4616623],[99.852478,19.467495],[99.8744202,19.4738846],[99.8930511,19.4836044],[99.9016571,19.4847183],[99.9060974,19.4841614],[99.9155426,19.4794388],[99.9197083,19.4741631],[99.9222107,19.466938],[99.9224854,19.4580498],[99.9102631,19.4191628],[99.9099884,19.4058304],[99.9130402,19.3952751],[99.9263763,19.3849945],[99.9383087,19.3824959],[99.9530487,19.3861084],[99.9594269,19.389164],[99.9874878,19.4119415],[100.0038834,19.4286079],[100.0099869,19.4324951],[100.023613,19.4374962],[100.0466537,19.4380493],[100.0527573,19.4358292],[100.0580292,19.4286079],[100.0652618,19.4283295],[100.0677567,19.4299965],[100.0763931,19.4261055],[100.0813828,19.4294395],[100.0847168,19.4344406],[100.0852737,19.4416618],[100.0838776,19.4483299],[100.086647,19.4522171],[100.1013794,19.4586067],[100.1080322,19.4683266],[100.1147003,19.4699936],[100.1255264,19.4677734],[100.1291504,19.4683266],[100.1369324,19.4733276],[100.1397095,19.4786072],[100.1391602,19.5011101],[100.1402664,19.5038872],[100.1469421,19.5094414],[100.1563721,19.5205536],[100.1572113,19.5238876],[100.1535873,19.5366631],[100.1547089,19.5394402],[100.1663818,19.5483322],[100.1680527,19.5580521],[100.1652679,19.5636101],[100.1641464,19.5713844],[100.176651,19.6024971],[100.1830902,19.6125603],[100.19664,19.6233292],[100.2174835,19.6355515],[100.2291565,19.6380501],[100.243042,19.6372185],[100.2552567,19.6344414],[100.2644272,19.6344414],[100.2702637,19.6374969],[100.2744293,19.6427727],[100.2763824,19.6499977],[100.2896324,19.6424825],[100.2957854,19.6443665],[100.3079667,19.6442986],[100.316965,19.6486768],[100.3228707,19.6627412],[100.3243591,19.670661],[100.3334793,19.6825489],[100.3417825,19.6880451],[100.3347666,19.7005668],[100.3377288,19.7087221],[100.3537951,19.7146366],[100.3586661,19.7110545],[100.3837672,19.7086697],[100.3902152,19.7153902],[100.3910212,19.7223272],[100.398966,19.7303478],[100.4034994,19.7316745],[100.406563,19.735507]]]}},{"type":"Feature","properties":{"shapeName":"Chiang Mai Province","shapeISO":"TH-50","shapeID":"36821470B31171150995182","shapeGroup":"THA","shapeType":"ADM1"},"geometry":{"type":"Polygon","coordinates":[[[99.513272,20.147538],[99.509858,20.147073],[99.500415,20.13514],[99.494633,20.13332],[99.498738,20.122953],[99.498172,20.116223],[99.491543,20.115591],[99.489231,20.112563],[99.483403,20.10958],[99.471749,20.109079],[99.462194,20.104526],[99.455187,20.097948],[99.444476,20.098297],[99.438201,20.090609],[99.42867,20.090152],[99.422253,20.093615],[99.417157,20.09368],[99.412533,20.088322],[99.405196,20.088605],[99.400595,20.086013],[99.396302,20.08928],[99.393494,20.087908],[99.385685,20.087559],[99.378395,20.089302],[99.373865,20.094398],[99.365019,20.099255],[99.351028,20.096424],[99.348292,20.101848],[99.343715,20.105638],[99.336944,20.103895],[99.330692,20.107837],[99.318306,20.110451],[99.313989,20.109971],[99.309082,20.112346],[99.306817,20.11093],[99.302146,20.113413],[99.295823,20.112128],[99.283956,20.11289],[99.278176,20.116593],[99.265413,20.113522],[99.253735,20.114284],[99.247079,20.112081],[99.241999,20.113807],[99.235134,20.122928],[99.232008,20.124783],[99.230138,20.124654],[99.225422,20.119449],[99.222408,20.119527],[99.217859,20.127076],[99.210408,20.130889],[99.199105,20.130889],[99.1909,20.126818],[99.18091,20.126561],[99.174017,20.128699],[99.170361,20.132177],[99.164109,20.130065],[99.159197,20.132822],[99.147895,20.127179],[99.14449,20.12267],[99.130034,20.119785],[99.125876,20.117337],[99.12822,20.109015],[99.131597,20.105872],[99.130397,20.104042],[99.124564,20.103939],[99.119067,20.100848],[99.111643,20.100435],[99.108462,20.097936],[99.104192,20.097524],[99.099978,20.097859],[99.098108,20.102831],[99.095457,20.105356],[99.093559,20.104815],[99.090713,20.097498],[99.083205,20.098554],[99.081224,20.101492],[99.076954,20.101131],[99.072684,20.097189],[99.067298,20.087759],[99.069782,20.082039],[99.066963,20.06841],[99.056804,20.062922],[99.053902,20.050478],[99.04832,20.045995],[99.044441,20.038265],[99.045781,20.025718],[99.043464,20.017138],[99.046506,20.012681],[99.046367,20.008739],[99.0546,20.003328],[99.050914,19.998568],[99.04221,19.995942],[99.037036,19.990215],[99.036325,19.981115],[99.034045,19.979372],[99.031985,19.973848],[99.039341,19.965405],[99.039611,19.956712],[99.045079,19.949173],[99.0414916,19.9437391],[99.0406777,19.9368798],[99.042627,19.931267],[99.034805,19.930067],[99.030465,19.924702],[99.026566,19.925653],[99.025659,19.929682],[99.021834,19.92717],[99.023281,19.925721],[99.023452,19.919292],[99.027204,19.915647],[99.027621,19.90897],[99.023673,19.909128],[99.021981,19.907385],[99.022251,19.89876],[99.026444,19.895523],[99.025267,19.887486],[99.02767,19.880944],[99.025561,19.877367],[99.025021,19.868064],[99.022888,19.866615],[99.029313,19.858442],[99.033996,19.855545],[99.033236,19.849116],[99.029607,19.841782],[99.03071,19.834402],[99.027277,19.827249],[99.024776,19.827385],[99.0219722,19.8196959],[99.0234993,19.8182614],[99.02262,19.8141891],[99.0196122,19.8123381],[99.0162804,19.8060447],[99.017067,19.7980854],[99.0151235,19.794152],[99.0071179,19.791792],[99.0044802,19.7814727],[99.0001766,19.782537],[98.994022,19.7815189],[98.9915695,19.7829072],[98.9887467,19.7661094],[98.9871271,19.7639807],[98.9883765,19.7561602],[98.9906902,19.7546794],[98.9888855,19.7472291],[98.9914769,19.7439899],[98.9868957,19.7395475],[98.9725504,19.7427404],[98.9664421,19.7474605],[98.9605652,19.7489413],[98.9562153,19.7518104],[98.9526059,19.7610654],[98.9534851,19.7653227],[98.9513564,19.76722],[98.9515878,19.7688396],[98.9458497,19.7696725],[98.9402041,19.7686545],[98.930255,19.7738373],[98.9236839,19.7652764],[98.9187325,19.7651376],[98.9193341,19.7627775],[98.9166501,19.7620834],[98.911421,19.7617132],[98.9086908,19.764027],[98.9057292,19.7633328],[98.9017958,19.7665721],[98.8984178,19.7658317],[98.89491,19.773173],[98.889456,19.775397],[98.883682,19.781623],[98.874848,19.78284],[98.87159,19.786029],[98.871227,19.79182],[98.856059,19.796843],[98.850195,19.801684],[98.849694,19.807979],[98.839557,19.813616],[98.832541,19.811224],[98.828071,19.802704],[98.829768,19.795836],[98.822662,19.78817],[98.819586,19.787274],[98.812797,19.780993],[98.807887,19.780126],[98.805326,19.776936],[98.795947,19.775957],[98.795916,19.773103],[98.787401,19.764527],[98.786719,19.761268],[98.781748,19.757911],[98.781021,19.754581],[98.778854,19.75279],[98.774596,19.752385],[98.76952,19.755295],[98.757322,19.757308],[98.751185,19.7604],[98.744822,19.755734],[98.74212,19.756257],[98.737678,19.7544],[98.73265,19.756895],[98.728691,19.761189],[98.722028,19.76086],[98.717063,19.762659],[98.711406,19.76881],[98.703676,19.757939],[98.699088,19.757282],[98.694479,19.754245],[98.691692,19.755251],[98.68392,19.754322],[98.679604,19.749409],[98.672355,19.751885],[98.666216,19.74968],[98.663283,19.746585],[98.665274,19.741575],[98.6592276,19.7355204],[98.653458,19.740008],[98.645832,19.736275],[98.64359,19.733432],[98.636194,19.732039],[98.634812,19.729138],[98.625405,19.728383],[98.627898,19.720685],[98.6262292,19.7150388],[98.620838,19.713992],[98.616145,19.717261],[98.612646,19.710336],[98.6081,19.709137],[98.599762,19.713218],[98.589957,19.71583],[98.580068,19.707396],[98.57173,19.704146],[98.572736,19.698808],[98.570201,19.696699],[98.570578,19.689214],[98.566828,19.681186],[98.56731,19.673642],[98.566032,19.672076],[98.561674,19.675248],[98.559097,19.675461],[98.556751,19.681186],[98.548685,19.686757],[98.538084,19.68933],[98.538168,19.69372],[98.532846,19.69637],[98.532783,19.699078],[98.528845,19.705694],[98.526351,19.706177],[98.522622,19.710936],[98.519668,19.712232],[98.518495,19.715501],[98.509696,19.717648],[98.507119,19.716352],[98.508208,19.713799],[98.506197,19.710065],[98.501588,19.709098],[98.496934,19.705705],[98.485561,19.704601],[98.4759154,19.6986351],[98.473763,19.69513],[98.467661,19.694868],[98.466728,19.692641],[98.4769287,19.6761055],[98.480545,19.6666641],[98.4905396,19.6527748],[98.4997101,19.6433296],[98.5030518,19.6419411],[98.5124969,19.6322174],[98.5208282,19.6261063],[98.5452576,19.6130524],[98.5505371,19.6088867],[98.5527649,19.579998],[98.5591431,19.5583305],[98.5605316,19.5555534],[98.5752716,19.5422211],[98.5763855,19.5138855],[98.5805511,19.5077744],[98.5883179,19.5058327],[98.5941467,19.5022202],[98.6008148,19.4947166],[98.6072083,19.4827728],[98.6094208,19.4752731],[98.6074829,19.4638824],[98.6013794,19.4516602],[98.5983276,19.4402733],[98.5969391,19.4238853],[98.5991516,19.4124947],[98.6010895,19.4091606],[98.6005402,19.3999977],[98.5994263,19.3969421],[98.5913696,19.3905525],[98.5905457,19.3874969],[98.5927582,19.3719406],[98.5944366,19.3686066],[98.6027679,19.3624954],[98.6058197,19.3566628],[98.6049805,19.3361092],[98.61026,19.3222198],[98.6091461,19.2972183],[98.6121979,19.2774963],[98.6085968,19.2669411],[98.6049805,19.2611084],[98.6035919,19.2530518],[98.6080322,19.234993],[98.6069336,19.2272186],[98.6010895,19.219162],[98.5891571,19.2119408],[98.5866547,19.2052727],[98.5894318,19.1988831],[98.5960999,19.1919403],[98.6174774,19.1749954],[98.6246948,19.1674957],[98.6497192,19.1274948],[98.6552582,19.101387],[98.6547089,19.0886078],[98.64888,19.0666656],[98.6397095,19.0566635],[98.6160889,19.0424957],[98.5960999,19.0391655],[98.5869293,19.0397186],[98.5730438,19.034996],[98.5608063,19.0277748],[98.5455322,19.0238876],[98.5330505,19.0255547],[98.5149994,19.0319405],[98.4916534,19.0377769],[98.4797058,19.0361099],[98.4716492,19.0252762],[98.4688721,19.0091629],[98.4674835,19.0055542],[98.4641571,19.0041656],[98.4544373,19.0086098],[98.4441376,19.017498],[98.4344177,19.0222206],[98.4160919,19.0277748],[98.3863831,19.0316658],[98.3547058,19.0294418],[98.3466492,19.0302773],[98.3361053,19.0347214],[98.3283234,19.0411072],[98.3222198,19.053051],[98.3060913,19.0702744],[98.3033142,19.076664],[98.2991486,19.081665],[98.2944336,19.0863838],[98.274704,19.0999985],[98.2636108,19.1252747],[98.2474823,19.1419411],[98.2355347,19.1494408],[98.2260895,19.1494408],[98.2227631,19.1511078],[98.2174835,19.1552734],[98.2138824,19.1608276],[98.2080383,19.1644402],[98.1858063,19.1644402],[98.1794281,19.1611061],[98.1705322,19.1513863],[98.157486,19.1505508],[98.1555481,19.1477737],[98.1552582,19.1305504],[98.152771,19.1191635],[98.1483307,19.1091614],[98.1405029,19.1016464],[98.1266479,19.0936089],[98.1194305,19.0866623],[98.1158142,19.0808296],[98.1163788,19.076664],[98.1213684,19.0719414],[98.1308136,19.0536079],[98.133606,19.0427742],[98.1091461,19.0008316],[98.1066437,18.989994],[98.1083221,18.9822159],[98.1197052,18.9611053],[98.1246948,18.9427719],[98.1244202,18.9299965],[98.1121979,18.890831],[98.0808258,18.8236084],[98.081665,18.8158302],[98.0891571,18.7997208],[98.0899811,18.7913857],[98.0983276,18.7766647],[98.1002655,18.7738876],[98.1052551,18.7733307],[98.1169281,18.7758293],[98.1197052,18.7741661],[98.1224823,18.7636108],[98.1194305,18.7524986],[98.1133118,18.7444382],[98.1108093,18.7377739],[98.1083221,18.7258263],[98.1088715,18.7047157],[98.1066437,18.6927719],[98.1119232,18.6749954],[98.1127625,18.6666641],[98.1110992,18.6586075],[98.1008148,18.6452751],[98.0986023,18.6380501],[98.1033173,18.6247177],[98.118042,18.6063843],[98.1194305,18.5986061],[98.1183167,18.5641632],[98.1121979,18.5463867],[98.1124878,18.5419426],[98.1149902,18.5358315],[98.1244202,18.5261078],[98.1486053,18.4944382],[98.157486,18.484993],[98.1669312,18.4797173],[98.1824799,18.4755516],[98.1960907,18.4658279],[98.2024841,18.4633293],[98.2105408,18.4569397],[98.2124939,18.44944],[98.2088776,18.4441605],[98.1960907,18.4374962],[98.191925,18.4369392],[98.1835938,18.4386063],[98.1785889,18.4427719],[98.1741486,18.4427719],[98.1713715,18.4408302],[98.1672058,18.4361076],[98.1602631,18.410553],[98.1513824,18.3958282],[98.1366577,18.3819389],[98.1069336,18.3599968],[98.0994263,18.3486061],[98.1019287,18.32444],[98.1066437,18.3191643],[98.1172028,18.3161087],[98.1210938,18.3105545],[98.1185913,18.303051],[98.1105347,18.2922211],[98.1049805,18.2797203],[98.0980377,18.2544441],[98.0913696,18.23666],[98.0908203,18.2286072],[98.0922089,18.2252731],[98.1047058,18.2188835],[98.1091461,18.2091599],[98.1108093,18.1886063],[98.1091461,18.1669388],[98.1038666,18.1488838],[98.1052551,18.1413841],[98.1136017,18.1266632],[98.1235962,18.1174965],[98.1269226,18.1113853],[98.1296997,18.0999985],[98.1271973,18.0888863],[98.1252594,18.0863838],[98.1222076,18.0838852],[98.1149902,18.0819397],[98.1058197,18.0769424],[98.098877,18.0697174],[98.0938721,18.0605545],[98.0885925,18.033886],[98.0827637,18.0249977],[98.0861053,17.9966621],[98.0972137,17.9713821],[98.1058197,17.9611053],[98.1344299,17.9419403],[98.1563721,17.9308281],[98.1735992,17.9063835],[98.1902618,17.8899956],[98.1999969,17.8680534],[98.2080383,17.8619423],[98.2272034,17.8566628],[98.2441406,17.8361092],[98.2460938,17.8291626],[98.2444305,17.8213844],[98.2358093,17.8161087],[98.2230377,17.805275],[98.2230377,17.8008308],[98.2285919,17.7924957],[98.2294312,17.788887],[98.2280426,17.785553],[98.2149963,17.7844429],[98.2124939,17.7822189],[98.2105408,17.7749977],[98.2108154,17.7708321],[98.215271,17.7655525],[98.2241516,17.7611084],[98.2285919,17.7555542],[98.2322083,17.7458267],[98.2333221,17.7241631],[98.2347107,17.7211075],[98.2402649,17.7177734],[98.2561035,17.7138824],[98.2713776,17.7058296],[98.2924805,17.7022171],[98.302475,17.6958275],[98.3019257,17.6916618],[98.2944336,17.6752739],[98.2711029,17.6661072],[98.2649994,17.6624947],[98.2619324,17.656662],[98.2572174,17.6327744],[98.2577667,17.5858307],[98.2591553,17.5774956],[98.2605438,17.5741653],[98.2677612,17.5719414],[98.2861023,17.5769424],[98.3041534,17.5708313],[98.306366,17.5686073],[98.3141479,17.5441628],[98.3241577,17.5261078],[98.324707,17.5055542],[98.3230438,17.4886055],[98.3177643,17.4655495],[98.3119202,17.4530487],[98.3116455,17.4449959],[98.3155365,17.4397163],[98.3224945,17.4363823],[98.3336029,17.4336052],[98.3366547,17.427494],[98.3347168,17.4188843],[98.3313751,17.4138832],[98.3249969,17.4102745],[98.3144226,17.4072189],[98.3105316,17.4019394],[98.3108063,17.3977737],[98.3288727,17.3788834],[98.3394318,17.347496],[98.3424835,17.3327751],[98.3394318,17.3263855],[98.332489,17.3188858],[98.3338776,17.306942],[98.3369293,17.3008308],[98.3469391,17.2916641],[98.364151,17.2858315],[98.3816528,17.2699966],[98.3924866,17.2666664],[98.3983307,17.2624969],[98.4066467,17.2527771],[98.4172058,17.2483292],[98.4219208,17.2483292],[98.4358063,17.2522202],[98.4697113,17.2699966],[98.5005493,17.2702751],[98.5236053,17.2749977],[98.5485992,17.283886],[98.556366,17.284996],[98.5630341,17.2877769],[98.5677643,17.2922211],[98.5736084,17.3144417],[98.5699921,17.3291626],[98.5724945,17.3405533],[98.5708313,17.348053],[98.5652618,17.3511086],[98.556366,17.3527756],[98.5508118,17.3563843],[98.5488739,17.3633308],[98.551651,17.3702736],[98.5594177,17.3811073],[98.5644226,17.3947182],[98.5669403,17.406105],[98.5663757,17.4230499],[98.5585938,17.4383278],[98.5397034,17.452774],[98.5344238,17.4611053],[98.531662,17.4858284],[98.5352631,17.5147209],[98.5444336,17.5383301],[98.5508118,17.5505524],[98.5552521,17.5555534],[98.5608063,17.5594406],[98.5811005,17.5669403],[98.6069336,17.5691643],[98.6127625,17.5733299],[98.6202545,17.5886078],[98.6246948,17.594162],[98.6271973,17.6055527],[98.6222076,17.619442],[98.6138763,17.6291618],[98.6136017,17.6455498],[98.6085968,17.6547165],[98.6110992,17.6658287],[98.6330414,17.6855507],[98.6477661,17.6952744],[98.6510925,17.7052727],[98.6474915,17.715271],[98.6480408,17.719162],[98.6549835,17.7313843],[98.6638794,17.7372169],[98.6883087,17.7444382],[98.7044373,17.7519417],[98.7055508,17.7575545],[98.7355347,17.7522202],[98.743866,17.7536087],[98.7502747,17.7572212],[98.7583313,17.7574997],[98.7744293,17.7411041],[98.7944336,17.7358284],[98.806366,17.7347183],[98.8227692,17.7180519],[98.8299866,17.7155495],[98.8391571,17.7147179],[98.8502655,17.7180519],[98.8574829,17.7247162],[98.8644257,17.7272186],[98.8763733,17.7255516],[98.8805389,17.7263832],[98.8830414,17.7283287],[98.8880463,17.7374954],[98.894989,17.739994],[98.8983307,17.7452736],[98.8977661,17.7627754],[98.8994293,17.7749977],[98.911377,17.8197174],[98.9099884,17.826664],[98.9063721,17.8327751],[98.8963776,17.8411064],[98.890274,17.8536072],[98.8869324,17.8727722],[98.8791504,17.8880501],[98.8749847,17.9069405],[98.8636017,17.9327736],[98.8574829,17.9619408],[98.8513794,17.9705505],[98.8383179,17.9705505],[98.8230438,17.9666634],[98.8186035,17.9672165],[98.8127594,17.9705505],[98.8085938,17.9802742],[98.8044281,17.9991608],[98.8002625,18.0088882],[98.7988739,18.0211105],[98.8019257,18.0322189],[98.8121948,18.0638847],[98.8216553,18.0824966],[98.8205414,18.0861092],[98.8124847,18.0972176],[98.8180542,18.115551],[98.8158112,18.1486053],[98.8116455,18.1580505],[98.8035889,18.1647186],[98.7952576,18.1744385],[98.793869,18.178051],[98.793869,18.1899948],[98.79776,18.2049942],[98.7935944,18.2374954],[98.786377,18.2491608],[98.7616577,18.2624969],[98.7388763,18.2777748],[98.7255402,18.2830544],[98.7158203,18.288887],[98.6969299,18.2941628],[98.6785889,18.3027763],[98.6676372,18.306058],[98.6757482,18.3149113],[98.674817,18.3199082],[98.6715726,18.3230268],[98.6709567,18.3253632],[98.6721863,18.3266831],[98.6792973,18.3279929],[98.6869577,18.3339874],[98.6900176,18.3347594],[98.6966802,18.3304046],[98.7000083,18.3301296],[98.7040852,18.3338428],[98.7036432,18.3372973],[98.6948569,18.3526667],[98.6813064,18.3686168],[98.686924,18.3764508],[98.6884818,18.3872228],[98.6907263,18.3919081],[98.6990862,18.3970411],[98.7095189,18.4138036],[98.7095125,18.4156766],[98.7070341,18.4161754],[98.7030344,18.4122929],[98.6987407,18.4107395],[98.6952152,18.4119163],[98.6929815,18.4164563],[98.6937754,18.4191559],[98.7011569,18.4267046],[98.7048798,18.4367711],[98.7086885,18.4413512],[98.7109995,18.4414632],[98.7152074,18.4343303],[98.7199645,18.4343914],[98.7217326,18.4366306],[98.7230888,18.4438916],[98.7250929,18.4452615],[98.7367273,18.4388881],[98.7428448,18.4316229],[98.7553246,18.4359965],[98.762705,18.4339772],[98.7648443,18.4346978],[98.7780268,18.4498129],[98.7880615,18.4533983],[98.7975758,18.45263],[98.800375,18.4546125],[98.8050538,18.4628099],[98.8133333,18.4622614],[98.8154726,18.4724988],[98.8221781,18.4752524],[98.8252831,18.4794387],[98.8356042,18.4838162],[98.8397766,18.4870571],[98.8427754,18.4897016],[98.8455144,18.498457],[98.8516268,18.5012716],[98.8558207,18.4994555],[98.8596112,18.5007242],[98.8616733,18.503572],[98.8617205,18.5102014],[98.8668886,18.5148457],[98.872371,18.5166311],[98.8765746,18.5109746],[98.8785476,18.5103764],[98.8930058,18.522029],[98.9074919,18.5290321],[98.9148218,18.5360673],[98.9227064,18.5359931],[98.9289506,18.5408045],[98.9338869,18.5417729],[98.9347002,18.5429375],[98.9320845,18.545451],[98.9335404,18.5493803],[98.9324804,18.554054],[98.9354029,18.5561116],[98.9378845,18.5630807],[98.9433112,18.5636716],[98.9478988,18.5709231],[98.9474697,18.5758637],[98.9533845,18.5797384],[98.9535057,18.5859855],[98.9560999,18.588119],[98.9580644,18.593354],[98.9646229,18.5972344],[98.9689338,18.6023542],[98.9761381,18.6052483],[98.9824829,18.6111069],[98.9860992,18.6163864],[98.9947052,18.6411057],[98.9983215,18.6463852],[99.0052643,18.6633301],[99.0133209,18.6699944],[99.0219269,18.6702728],[99.0297089,18.6683273],[99.0394287,18.6594391],[99.0427551,18.6538849],[99.0510864,18.6536064],[99.0569305,18.6572189],[99.0597076,18.6636086],[99.0727692,18.6761055],[99.0844269,18.6786079],[99.1107315,18.6797139],[99.1166534,18.6824951],[99.1291504,18.6988831],[99.1427612,18.7041626],[99.1658173,18.7041626],[99.176651,18.7072182],[99.1833191,18.7038841],[99.1874847,18.6991615],[99.1830444,18.6891632],[99.1833191,18.6855507],[99.1988678,18.6683273],[99.2022095,18.6622162],[99.2208252,18.6519394],[99.2230377,18.6494408],[99.223877,18.6416626],[99.2277679,18.6358299],[99.2297058,18.6197166],[99.2227631,18.6124954],[99.2149963,18.6113853],[99.2133179,18.5994415],[99.2147064,18.5961075],[99.2447052,18.5741653],[99.2634297,18.5656618],[99.2835999,18.5469437],[99.2922058,18.5408325],[99.3094177,18.5344429],[99.3146973,18.5297203],[99.3244324,18.5369415],[99.3280487,18.5433311],[99.327774,18.5555534],[99.3255463,18.5630531],[99.3278743,18.570202],[99.3317175,18.5750118],[99.3472137,18.5794411],[99.3486023,18.5824966],[99.3494263,18.5986061],[99.356369,18.6061058],[99.356369,18.6108284],[99.3522034,18.6158295],[99.3355408,18.6180534],[99.3252716,18.6224976],[99.321106,18.6269417],[99.321106,18.6316643],[99.3238831,18.6430511],[99.3258209,18.6455498],[99.3333282,18.6524963],[99.341095,18.6541634],[99.3424835,18.6572189],[99.3416595,18.6608276],[99.3308258,18.677494],[99.3302765,18.6863823],[99.3405457,18.7177734],[99.3474884,18.7338829],[99.3644257,18.7547188],[99.3666534,18.7619438],[99.3638763,18.7894402],[99.3583221,18.7977753],[99.3557033,18.8153119],[99.3521206,18.8208962],[99.3537079,18.825947],[99.3509435,18.8284149],[99.3497918,18.8363958],[99.3520574,18.8420066],[99.3515965,18.8458399],[99.371306,18.8549431],[99.3862331,18.8697931],[99.3854795,18.877337],[99.3905731,18.8829885],[99.3874016,18.8864601],[99.3845696,18.9006863],[99.3777282,18.9189919],[99.3860444,18.9374566],[99.385349,18.9473045],[99.3752594,18.9613838],[99.3774066,18.9685135],[99.3736983,18.9725503],[99.3721096,18.9812362],[99.3738708,18.9852715],[99.3827515,18.9916611],[99.4012801,18.9999594],[99.396255,19.0088598],[99.396583,19.0186275],[99.3900234,19.0197127],[99.3892034,19.0246739],[99.3875635,19.0259141],[99.3873995,19.0352157],[99.3811679,19.0500973],[99.3837917,19.0562975],[99.3831358,19.0595525],[99.3844477,19.0631175],[99.3754282,19.0679223],[99.3700166,19.0673024],[99.3637849,19.0690073],[99.363293,19.0719521],[99.3657528,19.0772216],[99.3639489,19.0810962],[99.3534536,19.0849706],[99.3516497,19.0869853],[99.345582,19.0854355],[99.3426302,19.0934166],[99.3371026,19.1007],[99.3359547,19.1055037],[99.3290671,19.1126316],[99.3290671,19.1161954],[99.3234914,19.120069],[99.323681,19.1236106],[99.3217598,19.1244303],[99.3214365,19.1281415],[99.3193493,19.1295657],[99.3225961,19.1342765],[99.322944,19.1400827],[99.3179578,19.1579381],[99.3187695,19.1642911],[99.3169142,19.1695485],[99.3050864,19.1763392],[99.3042747,19.18302],[99.3055502,19.1880578],[99.3031151,19.1937526],[99.3057821,19.1948477],[99.3056662,19.1978045],[99.309029,19.2055795],[99.3132035,19.2080981],[99.3094928,19.2135732],[99.3101886,19.2157631],[99.3084492,19.2191576],[99.3100726,19.2211285],[99.3097099,19.2246544],[99.3174174,19.2277513],[99.3226536,19.2437264],[99.3290518,19.2470363],[99.3374658,19.2549799],[99.3363264,19.2611856],[99.3438721,19.264164],[99.3422089,19.2766647],[99.3338776,19.2955513],[99.3244324,19.3319397],[99.3170942,19.3516775],[99.3232556,19.3575673],[99.3319397,19.3591614],[99.3341522,19.3663864],[99.3274841,19.3827744],[99.3255463,19.3988838],[99.3213806,19.4086075],[99.3152618,19.4163857],[99.310257,19.4299965],[99.3108063,19.4380493],[99.3181276,19.4529184],[99.3108016,19.4725366],[99.3065069,19.4738588],[99.305981,19.4777425],[99.3080845,19.4800561],[99.305542,19.4830513],[99.3076463,19.4892277],[99.2997131,19.4858284],[99.2935944,19.4941597],[99.2933197,19.4983292],[99.2972107,19.5036087],[99.2987888,19.5125624],[99.3015094,19.5171595],[99.3212106,19.5350784],[99.3252716,19.5363846],[99.3252716,19.540554],[99.3212367,19.5415404],[99.3166223,19.555679],[99.3071126,19.5546467],[99.2965242,19.5660812],[99.2949228,19.5759486],[99.2902234,19.5803763],[99.29233,19.5899947],[99.2910336,19.5957197],[99.2840655,19.6032],[99.2664775,19.6112698],[99.2658234,19.6161079],[99.2597198,19.6286087],[99.2599945,19.6333313],[99.2627716,19.6486053],[99.2702637,19.660553],[99.2805481,19.6688843],[99.3052521,19.6822166],[99.3155365,19.6997185],[99.3241577,19.7055511],[99.3313751,19.7077713],[99.3358154,19.7074966],[99.3424835,19.7047157],[99.3469391,19.7049942],[99.348877,19.7083282],[99.3486023,19.716938],[99.3510895,19.719162],[99.3583221,19.7213821],[99.3633118,19.7258263],[99.3658142,19.7324944],[99.3633118,19.7486038],[99.3663788,19.7594414],[99.3660889,19.768055],[99.3691406,19.7744408],[99.3791504,19.7833328],[99.3808136,19.7866631],[99.3808136,19.7952766],[99.3844299,19.8011093],[99.3927612,19.8077736],[99.4133148,19.810276],[99.4191437,19.8133316],[99.418869,19.8172188],[99.4102631,19.8274956],[99.4094238,19.8311081],[99.4138794,19.8402748],[99.4058228,19.8469429],[99.3991547,19.8491631],[99.3916626,19.8566628],[99.3833313,19.8841629],[99.3844299,19.8919411],[99.3894348,19.8963852],[99.3930511,19.9024963],[99.3983307,19.9063835],[99.4122009,19.9116631],[99.4197083,19.9186058],[99.4194336,19.9311066],[99.4163818,19.9474945],[99.4191437,19.9580498],[99.4319305,19.9641609],[99.4416504,19.9727707],[99.4530487,19.9761047],[99.4713745,19.9697151],[99.4799805,19.969162],[99.4991455,19.9736061],[99.5033264,19.9727707],[99.5119324,19.9666634],[99.5188751,19.9641609],[99.5230408,19.9641609],[99.5260925,19.9616623],[99.5310974,19.9530487],[99.5335999,19.9341621],[99.5422058,19.9236069],[99.552475,19.9147186],[99.560257,19.9144402],[99.5644226,19.9152718],[99.5666656,19.9174957],[99.5682198,19.9209982],[99.5680542,19.9344406],[99.5699921,19.9463844],[99.5883179,19.9655495],[99.5827637,19.9836044],[99.5844269,19.9908295],[99.5888824,19.9961052],[99.5916595,20.0080528],[99.5908203,20.0116653],[99.587204,20.0172195],[99.5808258,20.0199966],[99.5549774,20.0227737],[99.5460968,20.0274963],[99.5327606,20.0424957],[99.5163879,20.0497208],[99.5072174,20.0558319],[99.5030518,20.060276],[99.5,20.0711098],[99.5019379,20.078331],[99.5063782,20.0830536],[99.5358124,20.0922203],[99.5635986,20.1108284],[99.5669403,20.117218],[99.5666656,20.1216621],[99.5652618,20.1249962],[99.5552521,20.1288834],[99.5352631,20.133606],[99.5258179,20.1380501],[99.513272,20.147538]]]}}]}
