{"type":"FeatureCollection","features":[{"type":"Feature","geometry":{"type":"Polygon","coordinates":[[[99.51284,20.14701],[99.51284,20.14701],[99.51251,20.14721],[99.51219,20.14743],[99.51192,20.1475],[99.51163,20.14751],[99.51135,20.14747],[99.51107,20.14742],[99.51079,20.14737],[99.51053,20.14726],[99.51021,20.14704],[99.50993,20.14674],[99.50977,20.14647],[99.50945,20.14558],[99.50921,20.14494],[99.50848,20.14358],[99.50676,20.14159],[99.50501,20.1403],[99.50402,20.13959],[99.5019,20.13731],[99.50179,20.13702],[99.50167,20.13674],[99.50155,20.13649],[99.50142,20.13614],[99.50127,20.13576],[99.50105,20.13542],[99.50085,20.13518],[99.50065,20.13499],[99.50034,20.13476],[99.50005,20.13461],[99.49979,20.13451],[99.49953,20.1344],[99.49926,20.13431],[99.49899,20.13422],[99.49862,20.13408],[99.49823,20.13392],[99.49782,20.13378],[99.49752,20.13369],[99.49699,20.13356],[99.49674,20.13346],[99.49648,20.13337],[99.49624,20.13322],[99.49603,20.13291],[99.4958,20.13256],[99.49563,20.1323],[99.49544,20.13198],[99.49528,20.13171],[99.49516,20.13147],[99.49501,20.13112],[99.49492,20.13083],[99.49487,20.13046],[99.49491,20.13016],[99.49502,20.12991],[99.49519,20.12969],[99.49539,20.1295],[99.4956,20.12932],[99.49582,20.12915],[99.49613,20.12891],[99.49647,20.12866],[99.49673,20.12839],[99.49704,20.12827],[99.49722,20.12806],[99.49738,20.12784],[99.49749,20.12759],[99.49758,20.12723],[99.49762,20.12693],[99.49765,20.12656],[99.49768,20.12625],[99.49769,20.12598],[99.49774,20.12561],[99.49785,20.12533],[99.49802,20.12499],[99.49821,20.12463],[99.49834,20.12435],[99.49846,20.1241],[99.49858,20.12386],[99.49873,20.12352],[99.49885,20.12324],[99.49899,20.123],[99.49909,20.12275],[99.49917,20.12248],[99.49923,20.12222],[99.49926,20.12195],[99.49928,20.12165],[99.49924,20.12128],[99.49914,20.12099],[99.49898,20.12065],[99.49887,20.1204],[99.49879,20.12015],[99.49876,20.11988],[99.4988,20.11959],[99.49893,20.11932],[99.49909,20.11905],[99.49926,20.11868],[99.49938,20.11839],[99.49943,20.11813],[99.49944,20.11776],[99.49945,20.11745],[99.49946,20.11718],[99.49944,20.11691],[99.49939,20.11664],[99.49931,20.11639],[99.49916,20.11616],[99.49893,20.11595],[99.49854,20.11565],[99.49826,20.11549],[99.49801,20.11536],[99.49772,20.11523],[99.49736,20.11507],[99.49704,20.11497],[99.49674,20.11485],[99.49642,20.11483],[99.49614,20.11491],[99.49587,20.115],[99.49556,20.11509],[99.49517,20.11521],[99.49478,20.11531],[99.49439,20.11539],[99.49411,20.11535],[99.49383,20.1153],[99.49344,20.11522],[99.49313,20.11515],[99.49285,20.11508],[99.49258,20.11499],[99.49222,20.11484],[99.49185,20.11464],[99.49159,20.11445],[99.49138,20.11427],[99.49118,20.11407],[99.49097,20.11384],[99.49072,20.11355],[99.49055,20.11334],[99.49037,20.11312],[99.4902,20.11291],[99.49002,20.1127],[99.48983,20.1125],[99.48963,20.1123],[99.48934,20.11204],[99.4891,20.11184],[99.48888,20.11166],[99.48867,20.11149],[99.48842,20.11129],[99.48812,20.11105],[99.4879,20.11087],[99.48768,20.1107],[99.48745,20.11053],[99.48722,20.11037],[99.48696,20.11019],[99.48655,20.10992],[99.48628,20.10976],[99.48603,20.10962],[99.48568,20.10944],[99.4854,20.1093],[99.48513,20.1092],[99.48483,20.10909],[99.48445,20.10897],[99.48418,20.1089],[99.4839,20.10884],[99.48362,20.10879],[99.48323,20.10872],[99.48291,20.10868],[99.48263,20.10864],[99.48234,20.10862],[99.48205,20.10859],[99.48166,20.10856],[99.48134,20.10854],[99.48105,20.10852],[99.48073,20.1085],[99.48034,20.10848],[99.48005,20.10847],[99.47976,20.10846],[99.47948,20.10846],[99.47919,20.10845],[99.4789,20.10845],[99.47862,20.10845],[99.47833,20.10845],[99.47804,20.10845],[99.47775,20.10846],[99.47747,20.10846],[99.47707,20.10847],[99.47675,20.10848],[99.47646,20.10848],[99.47618,20.10849],[99.47585,20.1085],[99.47546,20.10851],[99.47507,20.10852],[99.47474,20.10852],[99.47446,20.10853],[99.47405,20.10853],[99.47367,20.10853],[99.47331,20.10843],[99.47293,20.10833],[99.47265,20.10826],[99.47238,20.10818],[99.47207,20.1081],[99.47165,20.108],[99.47124,20.10789],[99.47086,20.10778],[99.47048,20.10767],[99.47018,20.10757],[99.46991,20.10748],[99.46954,20.10735],[99.46914,20.10719],[99.46885,20.10706],[99.46859,20.10695],[99.4683,20.10681],[99.46795,20.10663],[99.46761,20.10645],[99.46733,20.10629],[99.46709,20.10614],[99.46685,20.106],[99.46661,20.10585],[99.46629,20.10563],[99.46596,20.10538],[99.4657,20.10505],[99.46554,20.10478],[99.4654,20.10455],[99.46521,20.10435],[99.46497,20.10421],[99.46465,20.10415],[99.46426,20.10414],[99.46397,20.10417],[99.46369,20.10421],[99.4633,20.10426],[99.46287,20.10429],[99.46255,20.10427],[99.46227,20.10421],[99.46192,20.10405],[99.46166,20.10387],[99.46144,20.10369],[99.46123,20.1035],[99.46096,20.10323],[99.46074,20.10301],[99.46054,20.10282],[99.46032,20.10264],[99.46011,20.10246],[99.45981,20.10221],[99.45949,20.10194],[99.45918,20.10166],[99.45894,20.10146],[99.45873,20.10127],[99.45851,20.10109],[99.4583,20.10091],[99.45809,20.10073],[99.45788,20.10055],[99.45766,20.10036],[99.45745,20.10018],[99.45714,20.09998],[99.45673,20.09972],[99.45638,20.09948],[99.45611,20.09931],[99.45588,20.09915],[99.45561,20.09897],[99.45529,20.09877],[99.45501,20.09861],[99.45473,20.09846],[99.45444,20.09832],[99.45405,20.09816],[99.45374,20.09806],[99.45336,20.09796],[99.45294,20.09787],[99.45263,20.09781],[99.45231,20.09776],[99.45192,20.09771],[99.45163,20.09768],[99.45131,20.09766],[99.45088,20.09763],[99.45049,20.09762],[99.45016,20.09761],[99.44977,20.0976],[99.44945,20.0976],[99.44905,20.09761],[99.44866,20.09763],[99.44834,20.09766],[99.44805,20.09769],[99.44777,20.09773],[99.44745,20.09778],[99.44706,20.09784],[99.44674,20.0979],[99.44632,20.09797],[99.44593,20.09803],[99.44565,20.09808],[99.44533,20.09812],[99.44483,20.09818],[99.44451,20.09821],[99.44422,20.09822],[99.44393,20.09821],[99.44365,20.09819],[99.44334,20.09812],[99.44312,20.09785],[99.44314,20.09758],[99.44319,20.09731],[99.44327,20.09695],[99.44332,20.09665],[99.44334,20.09634],[99.44327,20.09598],[99.44317,20.09569],[99.44303,20.09535],[99.44291,20.09509],[99.44275,20.09476],[99.44261,20.09448],[99.44248,20.09424],[99.44235,20.094],[99.44217,20.09367],[99.44202,20.0934],[99.44188,20.09316],[99.44175,20.09292],[99.44156,20.09256],[99.4414,20.09225],[99.44112,20.092],[99.44083,20.09172],[99.44064,20.09152],[99.44044,20.09133],[99.44024,20.09113],[99.44004,20.09094],[99.43983,20.09075],[99.43961,20.09058],[99.43938,20.09042],[99.43913,20.09028],[99.43887,20.09018],[99.43848,20.09014],[99.43815,20.09016],[99.43787,20.09021],[99.43749,20.0903],[99.43708,20.09041],[99.43676,20.09048],[99.43649,20.09055],[99.43622,20.09065],[99.43585,20.09079],[99.43545,20.09092],[99.43502,20.09098],[99.4346,20.09095],[99.43428,20.09091],[99.434,20.09085],[99.43372,20.09079],[99.4334,20.09072],[99.43299,20.09061],[99.43251,20.09047],[99.4322,20.09038],[99.43193,20.09029],[99.43155,20.09018],[99.43124,20.09009],[99.43097,20.09001],[99.4307,20.08993],[99.43043,20.08984],[99.43013,20.08971],[99.42978,20.08955],[99.42942,20.08939],[99.42903,20.08922],[99.42873,20.0891],[99.42846,20.08902],[99.42818,20.08896],[99.42786,20.08894],[99.42747,20.08899],[99.4272,20.08908],[99.42695,20.08921],[99.42671,20.08936],[99.42648,20.08952],[99.42626,20.0897],[99.42597,20.08995],[99.42574,20.09016],[99.42553,20.09035],[99.42533,20.09054],[99.42512,20.09072],[99.42487,20.09092],[99.42455,20.09114],[99.42428,20.0913],[99.42393,20.09148],[99.42368,20.0916],[99.42342,20.09172],[99.42306,20.09187],[99.42266,20.09202],[99.42236,20.09214],[99.42209,20.09223],[99.42182,20.09233],[99.42156,20.09243],[99.42129,20.09253],[99.42102,20.09263],[99.42066,20.09277],[99.42028,20.09276],[99.41999,20.09271],[99.41961,20.09264],[99.41929,20.09259],[99.41901,20.09254],[99.41862,20.09248],[99.4183,20.09243],[99.41791,20.09236],[99.41759,20.09231],[99.41731,20.09226],[99.41692,20.09218],[99.41661,20.09211],[99.41633,20.09205],[99.41595,20.09195],[99.41564,20.09187],[99.41534,20.09176],[99.41508,20.09149],[99.41496,20.09125],[99.41485,20.09099],[99.41476,20.09074],[99.41469,20.09047],[99.41463,20.09021],[99.41458,20.08994],[99.41452,20.08964],[99.41443,20.08918],[99.41436,20.08888],[99.41423,20.08853],[99.41401,20.08818],[99.41378,20.08797],[99.41352,20.08785],[99.41325,20.08778],[99.41296,20.08774],[99.41268,20.08773],[99.41235,20.08773],[99.41196,20.08776],[99.41168,20.08779],[99.41135,20.08783],[99.41096,20.08788],[99.41064,20.08792],[99.41025,20.08795],[99.40996,20.08797],[99.40968,20.08798],[99.40928,20.08798],[99.40896,20.08799],[99.40864,20.088],[99.40814,20.08803],[99.40781,20.08804],[99.40749,20.08805],[99.4071,20.08807],[99.40681,20.08808],[99.40652,20.08809],[99.40624,20.08809],[99.40595,20.08809],[99.40566,20.08809],[99.40538,20.08808],[99.40509,20.08807],[99.4048,20.08805],[99.40452,20.08802],[99.4042,20.08797],[99.40372,20.08783],[99.40343,20.0877],[99.40315,20.08754],[99.40282,20.08735],[99.40246,20.08714],[99.40214,20.08697],[99.40184,20.08687],[99.40153,20.08674],[99.40127,20.08663],[99.40101,20.08651],[99.40072,20.08639],[99.40031,20.08627],[99.39992,20.08621],[99.39963,20.08622],[99.39926,20.08633],[99.39897,20.08646],[99.39873,20.0866],[99.39849,20.08676],[99.39825,20.08691],[99.39802,20.08707],[99.39777,20.08721],[99.39752,20.08734],[99.39722,20.08745],[99.3968,20.08752],[99.39641,20.08756],[99.39612,20.08758],[99.3958,20.0876],[99.39537,20.08762],[99.39497,20.08763],[99.39465,20.08763],[99.39415,20.08763],[99.39383,20.08763],[99.3935,20.08762],[99.393,20.0876],[99.39268,20.08759],[99.39239,20.08758],[99.39207,20.08757],[99.39164,20.08755],[99.39121,20.08754],[99.39082,20.08753],[99.39053,20.08752],[99.39024,20.08751],[99.38995,20.08751],[99.38967,20.08751],[99.38938,20.08751],[99.38906,20.0875],[99.38863,20.08747],[99.38823,20.08745],[99.38784,20.08742],[99.38741,20.0874],[99.38709,20.08739],[99.3868,20.08739],[99.38652,20.08739],[99.38612,20.08741],[99.3858,20.08744],[99.38552,20.08749],[99.38524,20.08755],[99.38496,20.08762],[99.38459,20.08774],[99.38429,20.08786],[99.38399,20.08798],[99.38364,20.08814],[99.38329,20.08832],[99.38301,20.08846],[99.38276,20.08859],[99.3825,20.08873],[99.38216,20.0889],[99.38187,20.08905],[99.38162,20.08917],[99.38136,20.08929],[99.38103,20.08926],[99.38061,20.08919],[99.38022,20.08912],[99.37994,20.08907],[99.37956,20.08897],[99.37926,20.08887],[99.379,20.08875],[99.37872,20.0886],[99.37838,20.0884],[99.37812,20.08823],[99.3778,20.08801],[99.37757,20.08785],[99.37734,20.08769],[99.37711,20.08753],[99.37687,20.08737],[99.37661,20.08719],[99.37625,20.08698],[99.3759,20.08679],[99.37565,20.08666],[99.3754,20.08654],[99.37514,20.08642],[99.37488,20.08629],[99.37463,20.08617],[99.37437,20.08605],[99.37411,20.08593],[99.37385,20.08581],[99.3736,20.0857],[99.37324,20.08554],[99.37295,20.0854],[99.37269,20.08529],[99.37243,20.08518],[99.37217,20.08506],[99.37181,20.08491],[99.37152,20.08478],[99.37125,20.08467],[99.37096,20.08454],[99.37057,20.08438],[99.37017,20.08422],[99.36978,20.08406],[99.36941,20.08391],[99.36915,20.0838],[99.36888,20.0837],[99.36862,20.08359],[99.36836,20.08349],[99.36809,20.08339],[99.36782,20.08329],[99.36756,20.08319],[99.36729,20.0831],[99.36702,20.083],[99.36665,20.08288],[99.36624,20.08275],[99.36593,20.08265],[99.36566,20.08256],[99.36539,20.08248],[99.36512,20.08239],[99.36474,20.08228],[99.36433,20.08215],[99.36403,20.08206],[99.36375,20.08197],[99.36348,20.08189],[99.36317,20.08178],[99.36287,20.08169],[99.36257,20.08164],[99.36228,20.0816],[99.36196,20.08156],[99.36157,20.08151],[99.36125,20.08147],[99.36082,20.08142],[99.36043,20.08138],[99.36011,20.08134],[99.35969,20.08129],[99.35929,20.08124],[99.35901,20.0812],[99.35873,20.08116],[99.35844,20.08112],[99.35816,20.08107],[99.35788,20.08102],[99.35756,20.08096],[99.35714,20.08087],[99.35676,20.08078],[99.35648,20.08071],[99.35621,20.08063],[99.35594,20.08055],[99.35566,20.08046],[99.35539,20.08037],[99.35513,20.08027],[99.35486,20.08017],[99.3546,20.08006],[99.35434,20.07995],[99.35408,20.07983],[99.35382,20.07971],[99.35354,20.07957],[99.35319,20.07939],[99.35295,20.07925],[99.35271,20.0791],[99.35247,20.07894],[99.35221,20.07876],[99.3519,20.07853],[99.35167,20.07832],[99.35138,20.07802],[99.35107,20.07765],[99.35082,20.07731],[99.35064,20.07706],[99.35043,20.07675],[99.35019,20.07641],[99.35,20.07616],[99.34983,20.07594],[99.34966,20.07573],[99.34947,20.07552],[99.34927,20.07533],[99.34906,20.07515],[99.34883,20.07498],[99.34858,20.07485],[99.34822,20.07469],[99.34792,20.07459],[99.34764,20.07451],[99.34733,20.07443],[99.34694,20.07436],[99.34655,20.07431],[99.34623,20.07427],[99.34584,20.07424],[99.34552,20.07422],[99.3452,20.07421],[99.34477,20.07419],[99.34437,20.07418],[99.34398,20.07417],[99.34366,20.07416],[99.34337,20.07415],[99.34308,20.07414],[99.3428,20.07412],[99.3424,20.07409],[99.34208,20.07406],[99.34177,20.07395],[99.34151,20.07384],[99.34125,20.07373],[99.34091,20.07353],[99.34058,20.07328],[99.34034,20.07307],[99.3401,20.07286],[99.33982,20.0726],[99.33961,20.07242],[99.3393,20.07219],[99.33896,20.07204],[99.33866,20.07218],[99.33841,20.0723],[99.33813,20.07238],[99.33786,20.07245],[99.33758,20.07253],[99.33727,20.07261],[99.33689,20.0727],[99.33661,20.07277],[99.33633,20.07284],[99.33606,20.07291],[99.33578,20.07298],[99.3354,20.07307],[99.33509,20.07317],[99.33482,20.07325],[99.33451,20.07336],[99.33411,20.0735],[99.33363,20.07365],[99.33332,20.07373],[99.33304,20.07379],[99.33276,20.07382],[99.33244,20.07383],[99.33205,20.07378],[99.33167,20.07368],[99.33137,20.07357],[99.33111,20.07346],[99.33085,20.07333],[99.33051,20.07314],[99.33024,20.07298],[99.32999,20.07284],[99.32975,20.0727],[99.32941,20.0725],[99.32913,20.07235],[99.32888,20.07222],[99.32863,20.0721],[99.32837,20.07197],[99.32812,20.07184],[99.32787,20.07171],[99.32762,20.07157],[99.32734,20.07143],[99.32696,20.07123],[99.32659,20.07103],[99.32624,20.07085],[99.32599,20.07072],[99.32571,20.07057],[99.32542,20.07041],[99.32518,20.07029],[99.32518,20.07003],[99.3253,20.06969],[99.32536,20.06942],[99.32541,20.06916],[99.32546,20.06889],[99.32553,20.06852],[99.32561,20.06812],[99.32566,20.06782],[99.32572,20.06756],[99.32577,20.06726],[99.32585,20.06685],[99.32591,20.06649],[99.32597,20.06622],[99.32602,20.06595],[99.32609,20.06559],[99.32614,20.06529],[99.3262,20.06502],[99.32626,20.06472],[99.32633,20.06435],[99.32639,20.06409],[99.32644,20.06382],[99.3265,20.06356],[99.32658,20.06319],[99.32665,20.06289],[99.32672,20.06263],[99.32678,20.06237],[99.32685,20.0621],[99.32694,20.06174],[99.32705,20.06135],[99.32713,20.06105],[99.32721,20.06079],[99.32728,20.06053],[99.32736,20.06027],[99.32744,20.06001],[99.32752,20.05975],[99.3276,20.05949],[99.32771,20.05913],[99.32781,20.05884],[99.32789,20.05858],[99.32797,20.05832],[99.32807,20.05803],[99.3282,20.05764],[99.32832,20.05729],[99.32844,20.05693],[99.32854,20.05664],[99.32863,20.05638],[99.32872,20.05613],[99.32882,20.05587],[99.32891,20.05561],[99.329,20.05536],[99.32909,20.0551],[99.32919,20.05484],[99.32928,20.05459],[99.32937,20.05433],[99.32947,20.05408],[99.32956,20.05382],[99.3297,20.05347],[99.3298,20.05318],[99.32994,20.05283],[99.33005,20.05254],[99.33018,20.05219],[99.33033,20.05181],[99.33044,20.05152],[99.33055,20.05124],[99.33068,20.05089],[99.33082,20.05054],[99.33093,20.05025],[99.33103,20.05],[99.33113,20.04974],[99.33123,20.04949],[99.33133,20.04923],[99.33143,20.04898],[99.33154,20.04873],[99.33164,20.04848],[99.33175,20.04823],[99.33187,20.04798],[99.33198,20.04773],[99.3321,20.04748],[99.33222,20.04724],[99.33238,20.0469],[99.33252,20.04662],[99.33265,20.04634],[99.33282,20.046],[99.33298,20.04566],[99.33312,20.04539],[99.33325,20.04511],[99.33341,20.04477],[99.33353,20.04452],[99.33364,20.04427],[99.3338,20.04393],[99.33393,20.04365],[99.33404,20.0434],[99.33415,20.04315],[99.33426,20.0429],[99.33438,20.04265],[99.33449,20.0424],[99.3346,20.04216],[99.33473,20.04187],[99.3349,20.0415],[99.33505,20.04116],[99.33516,20.04091],[99.33529,20.04063],[99.33545,20.04025],[99.33561,20.03991],[99.33572,20.03966],[99.33584,20.03938],[99.33601,20.039],[99.33616,20.03866],[99.33632,20.03832],[99.33644,20.03803],[99.33655,20.03778],[99.33667,20.03753],[99.33678,20.03729],[99.33689,20.03703],[99.337,20.03679],[99.33713,20.03651],[99.33731,20.0361],[99.33744,20.0358],[99.33772,20.03554],[99.33799,20.03526],[99.33819,20.03506],[99.33838,20.03486],[99.33857,20.03466],[99.33878,20.03443],[99.33903,20.03414],[99.33929,20.03385],[99.33949,20.03362],[99.33967,20.03341],[99.33985,20.0332],[99.34003,20.03299],[99.34022,20.03278],[99.3404,20.03257],[99.34058,20.03236],[99.34077,20.03215],[99.34102,20.03187],[99.34123,20.03164],[99.34142,20.03144],[99.34162,20.03124],[99.34189,20.03096],[99.34211,20.03074],[99.34232,20.03055],[99.34252,20.03037],[99.34274,20.03018],[99.34295,20.03001],[99.34317,20.02984],[99.34349,20.02961],[99.34375,20.02943],[99.34399,20.02929],[99.34424,20.02915],[99.34449,20.02902],[99.34475,20.0289],[99.34505,20.02879],[99.34542,20.02867],[99.3457,20.0286],[99.34598,20.02855],[99.34627,20.02851],[99.34655,20.02849],[99.34684,20.02848],[99.34712,20.02847],[99.34741,20.02848],[99.3477,20.02849],[99.34798,20.02852],[99.34838,20.02855],[99.3488,20.02861],[99.34923,20.02867],[99.34955,20.02872],[99.34983,20.02876],[99.35015,20.02882],[99.35046,20.02887],[99.35078,20.02892],[99.35121,20.02899],[99.35152,20.02904],[99.35181,20.02909],[99.35209,20.02913],[99.35241,20.02917],[99.3528,20.02921],[99.35309,20.02924],[99.35348,20.02926],[99.3538,20.02927],[99.35409,20.02927],[99.35441,20.02926],[99.35481,20.02923],[99.35509,20.02919],[99.35537,20.02914],[99.35565,20.02907],[99.35593,20.029],[99.3563,20.02889],[99.35671,20.02875],[99.35701,20.02865],[99.35728,20.02855],[99.35755,20.02846],[99.35782,20.02836],[99.35808,20.02827],[99.35835,20.02817],[99.35863,20.02809],[99.35891,20.02801],[99.35905,20.02823],[99.35921,20.02851],[99.35943,20.02886],[99.35959,20.02912],[99.35978,20.02944],[99.35994,20.02971],[99.36009,20.02995],[99.36023,20.03018],[99.36037,20.03042],[99.36052,20.03069],[99.3607,20.03102],[99.36082,20.03126],[99.36095,20.0315],[99.36109,20.03174],[99.36123,20.03198],[99.36137,20.03221],[99.36155,20.03247],[99.36179,20.03277],[99.36205,20.03304],[99.36227,20.03327],[99.36247,20.03346],[99.36268,20.03365],[99.36292,20.03385],[99.36324,20.03412],[99.36355,20.03435],[99.36378,20.03452],[99.36404,20.03469],[99.3644,20.03492],[99.36475,20.03508],[99.36514,20.03512],[99.36546,20.03508],[99.36574,20.035],[99.36601,20.03491],[99.36627,20.03481],[99.36664,20.03467],[99.36704,20.03451],[99.36733,20.03438],[99.36759,20.03426],[99.36793,20.03409],[99.36821,20.03393],[99.36846,20.03379],[99.36869,20.03364],[99.36895,20.03337],[99.36904,20.03308],[99.36908,20.03271],[99.36924,20.03245],[99.36956,20.03255],[99.36981,20.03268],[99.37014,20.03289],[99.3704,20.03307],[99.3707,20.03331],[99.37095,20.03351],[99.37115,20.0337],[99.37135,20.03389],[99.37155,20.03409],[99.3718,20.03438],[99.37199,20.03462],[99.37212,20.03486],[99.37221,20.03512],[99.37227,20.03538],[99.3723,20.03569],[99.37233,20.03606],[99.37234,20.03633],[99.37236,20.03663],[99.37237,20.03704],[99.37255,20.03732],[99.37282,20.03749],[99.37314,20.03771],[99.3734,20.03789],[99.37374,20.03808],[99.37403,20.03821],[99.37433,20.03831],[99.37465,20.03832],[99.37496,20.03823],[99.37519,20.03807],[99.3754,20.03788],[99.37559,20.03768],[99.37577,20.03747],[99.37597,20.03723],[99.37627,20.03685],[99.37654,20.03653],[99.37677,20.03632],[99.37703,20.03614],[99.3774,20.03608],[99.37767,20.03617],[99.37792,20.0363],[99.37817,20.03644],[99.3784,20.0366],[99.37863,20.03676],[99.37892,20.03701],[99.37916,20.03722],[99.37936,20.03741],[99.37963,20.03768],[99.37984,20.03791],[99.38003,20.03811],[99.38022,20.03832],[99.3804,20.03853],[99.38061,20.03876],[99.38086,20.03905],[99.38105,20.03926],[99.38123,20.03947],[99.38141,20.03968],[99.3816,20.03988],[99.38178,20.04009],[99.38205,20.04037],[99.38226,20.04059],[99.38254,20.04086],[99.38276,20.04108],[99.383,20.04129],[99.38332,20.04156],[99.38364,20.04183],[99.38394,20.04207],[99.38424,20.04231],[99.38449,20.04251],[99.38474,20.0427],[99.38504,20.04294],[99.38527,20.04311],[99.38549,20.04328],[99.38574,20.04347],[99.38605,20.0437],[99.38627,20.04387],[99.3865,20.04404],[99.38672,20.04421],[99.38694,20.04438],[99.38717,20.04455],[99.38739,20.04472],[99.38766,20.04494],[99.388,20.0451],[99.38846,20.04532],[99.38884,20.04551],[99.38913,20.04565],[99.38938,20.04577],[99.38963,20.0459],[99.38989,20.04603],[99.39014,20.04615],[99.39049,20.04632],[99.39078,20.04647],[99.39106,20.04661],[99.39145,20.04679],[99.3918,20.04696],[99.39206,20.04708],[99.39231,20.0472],[99.39257,20.04731],[99.39283,20.04743],[99.39319,20.04758],[99.39359,20.04774],[99.39388,20.04786],[99.39415,20.04796],[99.39442,20.04806],[99.39469,20.04816],[99.39506,20.04829],[99.39546,20.04842],[99.39577,20.04851],[99.39605,20.04859],[99.39632,20.04867],[99.39659,20.04875],[99.39687,20.04882],[99.39718,20.04891],[99.39756,20.049],[99.39784,20.04907],[99.39812,20.04914],[99.3984,20.0492],[99.39867,20.04927],[99.39899,20.04934],[99.39937,20.04942],[99.39966,20.04947],[99.40005,20.04952],[99.40037,20.04956],[99.40069,20.0496],[99.40111,20.04964],[99.40151,20.04968],[99.40179,20.0497],[99.40208,20.04973],[99.40236,20.04976],[99.40265,20.04979],[99.40293,20.04982],[99.40325,20.04987],[99.40364,20.04993],[99.40392,20.04999],[99.4042,20.05005],[99.40447,20.05013],[99.40478,20.05023],[99.40517,20.05039],[99.4055,20.05059],[99.40576,20.05088],[99.40593,20.05114],[99.40605,20.05138],[99.40617,20.05163],[99.40631,20.05197],[99.40643,20.05226],[99.40654,20.05251],[99.40666,20.05275],[99.4068,20.05299],[99.40706,20.05327],[99.40744,20.05343],[99.40775,20.05341],[99.40803,20.05332],[99.40838,20.05316],[99.40867,20.05302],[99.40892,20.05289],[99.40918,20.05278],[99.40945,20.05269],[99.40973,20.05264],[99.41002,20.05266],[99.41029,20.05275],[99.41058,20.05288],[99.41093,20.05311],[99.41126,20.05337],[99.41159,20.05364],[99.41188,20.05389],[99.41213,20.05409],[99.41244,20.05432],[99.41267,20.05447],[99.41292,20.0546],[99.41327,20.05478],[99.41356,20.05491],[99.41382,20.05502],[99.41411,20.05515],[99.41457,20.05534],[99.41487,20.05547],[99.41516,20.0556],[99.41554,20.05579],[99.41585,20.056],[99.41587,20.05626],[99.41613,20.05616],[99.41636,20.05601],[99.41663,20.05584],[99.41695,20.05563],[99.41722,20.05545],[99.41753,20.05523],[99.41776,20.05506],[99.41799,20.05489],[99.41821,20.05472],[99.41843,20.05455],[99.41868,20.05435],[99.41897,20.0541],[99.41916,20.0539],[99.41933,20.05368],[99.41954,20.05337],[99.4197,20.0531],[99.41984,20.05287],[99.42,20.05264],[99.42019,20.05243],[99.42042,20.05228],[99.4207,20.05226],[99.42101,20.05235],[99.42138,20.05255],[99.42172,20.0528],[99.422,20.05306],[99.42219,20.05326],[99.42237,20.05352],[99.42254,20.05385],[99.42259,20.05412],[99.42261,20.05439],[99.42259,20.05476],[99.42256,20.05506],[99.42252,20.05533],[99.42249,20.0556],[99.42246,20.05587],[99.42244,20.05614],[99.42245,20.05641],[99.42253,20.05678],[99.42264,20.05706],[99.42278,20.0573],[99.42293,20.05753],[99.42316,20.05783],[99.42335,20.05808],[99.42352,20.0583],[99.42368,20.05853],[99.42399,20.05849],[99.42435,20.05844],[99.42474,20.05837],[99.42506,20.05832],[99.42544,20.05825],[99.42576,20.0582],[99.42615,20.05815],[99.42647,20.05812],[99.42687,20.0581],[99.42715,20.0581],[99.42755,20.05814],[99.42786,20.0582],[99.42817,20.05829],[99.42864,20.05846],[99.42893,20.05858],[99.42922,20.05873],[99.42955,20.05893],[99.42978,20.05909],[99.43,20.05927],[99.43022,20.05949],[99.43045,20.05983],[99.43056,20.06019],[99.4306,20.06046],[99.43061,20.06073],[99.43062,20.061],[99.43062,20.06127],[99.43063,20.06154],[99.43065,20.06181],[99.43069,20.06208],[99.43077,20.06234],[99.43086,20.0626],[99.43097,20.06288],[99.43116,20.06332],[99.43134,20.06369],[99.43147,20.06397],[99.4316,20.06421],[99.43173,20.06446],[99.43186,20.0647],[99.43198,20.06494],[99.43211,20.06522],[99.43226,20.06556],[99.43237,20.06582],[99.43252,20.06616],[99.43266,20.06644],[99.43279,20.06668],[99.43294,20.06691],[99.43315,20.06714],[99.43346,20.06737],[99.43376,20.06747],[99.43415,20.06754],[99.43447,20.06756],[99.4349,20.06755],[99.4354,20.06748],[99.43571,20.06741],[99.43602,20.06732],[99.43637,20.06716],[99.4366,20.067],[99.43681,20.06677],[99.43703,20.06642],[99.43718,20.06604],[99.4373,20.06558],[99.43735,20.06527],[99.43738,20.06501],[99.4374,20.06474],[99.43741,20.06446],[99.43739,20.06419],[99.43737,20.06392],[99.43731,20.06366],[99.43723,20.0634],[99.43714,20.06314],[99.43704,20.06289],[99.43693,20.06264],[99.4368,20.06236],[99.43663,20.06202],[99.4365,20.06178],[99.43638,20.06153],[99.43625,20.06129],[99.43613,20.06104],[99.43598,20.0607],[99.43587,20.06041],[99.43579,20.06015],[99.43575,20.05989],[99.4358,20.05962],[99.4361,20.05941],[99.43653,20.05934],[99.43685,20.05935],[99.43713,20.05937],[99.43742,20.05941],[99.43774,20.05947],[99.43812,20.05955],[99.43843,20.05964],[99.43884,20.05977],[99.43923,20.05993],[99.43958,20.06011],[99.43981,20.06026],[99.44004,20.06042],[99.44026,20.0606],[99.44047,20.06078],[99.44068,20.06097],[99.4409,20.06119],[99.44118,20.0615],[99.44146,20.06181],[99.44172,20.06209],[99.4419,20.0623],[99.44211,20.06253],[99.44239,20.06284],[99.44259,20.06316],[99.44268,20.06341],[99.44291,20.06357],[99.4432,20.06331],[99.44345,20.06302],[99.44365,20.06278],[99.44383,20.06253],[99.44403,20.06221],[99.44416,20.06197],[99.44431,20.06162],[99.44439,20.06132],[99.44441,20.06105],[99.44441,20.06078],[99.44439,20.06051],[99.44436,20.06024],[99.44431,20.05987],[99.44426,20.05957],[99.44421,20.05927],[99.44412,20.05887],[99.44403,20.05851],[99.44393,20.05815],[99.44382,20.05776],[99.44373,20.05746],[99.44362,20.05711],[99.4435,20.05672],[99.44337,20.05633],[99.44325,20.05594],[99.44314,20.05555],[99.44305,20.05525],[99.44298,20.05499],[99.44311,20.05468],[99.44346,20.05486],[99.44373,20.05504],[99.44405,20.05525],[99.44429,20.0554],[99.44456,20.05557],[99.44488,20.05578],[99.44512,20.05594],[99.44535,20.0561],[99.44558,20.05626],[99.4458,20.05643],[99.44601,20.05661],[99.44622,20.0568],[99.44642,20.05699],[99.44661,20.0572],[99.44679,20.05741],[99.44696,20.05767],[99.44713,20.05801],[99.44723,20.05826],[99.44734,20.05855],[99.44745,20.0589],[99.44755,20.05926],[99.44765,20.05966],[99.44773,20.05995],[99.44783,20.06031],[99.44792,20.06061],[99.44802,20.06086],[99.44812,20.06111],[99.44831,20.06144],[99.44852,20.06167],[99.44877,20.06181],[99.44905,20.06186],[99.44933,20.06186],[99.44965,20.06181],[99.45007,20.06171],[99.45044,20.06158],[99.4507,20.06147],[99.45096,20.06135],[99.45121,20.06122],[99.45145,20.06108],[99.45172,20.06091],[99.45202,20.06067],[99.4523,20.06041],[99.4525,20.06017],[99.45263,20.05993],[99.45269,20.05966],[99.4527,20.05939],[99.45267,20.05912],[99.45258,20.05876],[99.45249,20.05847],[99.45239,20.05821],[99.45229,20.05796],[99.45214,20.05761],[99.45202,20.05733],[99.45191,20.05708],[99.45176,20.05674],[99.45165,20.05645],[99.45156,20.05619],[99.45148,20.05593],[99.45141,20.05567],[99.45137,20.0554],[99.45137,20.05513],[99.45144,20.05477],[99.45157,20.05449],[99.45174,20.05427],[99.45195,20.05404],[99.45226,20.05375],[99.45256,20.05352],[99.45282,20.05334],[99.45315,20.05314],[99.45343,20.05298],[99.45379,20.05282],[99.45405,20.05271],[99.45432,20.05262],[99.4546,20.05255],[99.45492,20.0525],[99.45534,20.05255],[99.45568,20.05278],[99.4559,20.05309],[99.45606,20.05343],[99.4562,20.05381],[99.4563,20.0541],[99.45639,20.05439],[99.45649,20.05475],[99.4566,20.05511],[99.45669,20.0554],[99.45679,20.05566],[99.45693,20.05601],[99.45708,20.05628],[99.45723,20.05651],[99.45745,20.05668],[99.45772,20.05673],[99.45801,20.0567],[99.45828,20.05662],[99.45854,20.0565],[99.45877,20.05634],[99.45894,20.05612],[99.45911,20.05586],[99.45932,20.05551],[99.45951,20.05519],[99.45967,20.05492],[99.45987,20.05456],[99.46006,20.05419],[99.46023,20.05386],[99.46035,20.05361],[99.46047,20.05337],[99.46059,20.05312],[99.46071,20.05287],[99.46083,20.05262],[99.46094,20.05238],[99.4611,20.05203],[99.46123,20.05175],[99.46138,20.05141],[99.46151,20.05113],[99.46162,20.05088],[99.46173,20.05063],[99.46185,20.05038],[99.46196,20.05013],[99.46207,20.04989],[99.46219,20.04964],[99.46231,20.04939],[99.46242,20.04914],[99.46259,20.04879],[99.46276,20.04845],[99.46313,20.04833],[99.46354,20.0482],[99.46395,20.04807],[99.46432,20.04795],[99.46459,20.04786],[99.4649,20.04776],[99.4653,20.04762],[99.46578,20.04747],[99.46608,20.04737],[99.46635,20.04728],[99.46663,20.04719],[99.467,20.04707],[99.46741,20.04694],[99.46771,20.04684],[99.46798,20.04676],[99.46825,20.04667],[99.46856,20.04657],[99.46894,20.04646],[99.46921,20.04637],[99.46948,20.04629],[99.46975,20.0462],[99.47013,20.04609],[99.47044,20.046],[99.47071,20.04592],[99.47098,20.04584],[99.47126,20.04576],[99.47157,20.04568],[99.47196,20.0456],[99.47224,20.04554],[99.47262,20.04546],[99.47294,20.0454],[99.47322,20.04534],[99.4735,20.04529],[99.47378,20.04523],[99.47406,20.04517],[99.47434,20.04511],[99.47462,20.04504],[99.47489,20.04497],[99.47517,20.04489],[99.47544,20.0448],[99.47571,20.0447],[99.47607,20.04456],[99.47636,20.04443],[99.47664,20.04428],[99.47698,20.04409],[99.47722,20.04394],[99.47747,20.04375],[99.47778,20.04347],[99.47804,20.04319],[99.47821,20.04297],[99.47838,20.04275],[99.47854,20.04252],[99.4787,20.0423],[99.47885,20.04207],[99.47901,20.0418],[99.47921,20.04148],[99.4794,20.04116],[99.47961,20.0408],[99.47976,20.04053],[99.48097,20.03848],[99.48158,20.0386],[99.48215,20.03875],[99.48271,20.03892],[99.48327,20.03908],[99.48383,20.03923],[99.48436,20.03947],[99.48477,20.03983],[99.48508,20.0403],[99.48537,20.04079],[99.48571,20.04122],[99.48616,20.04153],[99.48666,20.04176],[99.4872,20.04195],[99.48775,20.04211],[99.48831,20.04228],[99.48887,20.04245],[99.48941,20.04265],[99.48994,20.04286],[99.49047,20.04307],[99.49101,20.0433],[99.49153,20.04353],[99.49203,20.04379],[99.4925,20.04409],[99.49289,20.04445],[99.49319,20.04492],[99.49347,20.04541],[99.4938,20.04587],[99.49413,20.04631],[99.49447,20.04674],[99.49481,20.04718],[99.49513,20.04763],[99.49543,20.0481],[99.49567,20.04842],[99.4959,20.04871],[99.49611,20.04902],[99.49626,20.04934],[99.49637,20.04969],[99.49649,20.05004],[99.49667,20.05039],[99.49677,20.05093],[99.49692,20.05146],[99.497,20.05182],[99.49706,20.05218],[99.4971,20.05254],[99.49711,20.0529],[99.49709,20.05325],[99.49704,20.0536],[99.49698,20.05394],[99.49691,20.05429],[99.49683,20.05464],[99.49674,20.05501],[99.49665,20.05534],[99.49654,20.05568],[99.49644,20.05603],[99.49632,20.05638],[99.4962,20.05672],[99.49608,20.05707],[99.49595,20.05742],[99.49582,20.05776],[99.49569,20.05811],[99.49555,20.05845],[99.49542,20.05879],[99.49529,20.05914],[99.49515,20.05948],[99.49502,20.05982],[99.49489,20.06017],[99.49476,20.06051],[99.49463,20.06085],[99.4945,20.06119],[99.49437,20.06153],[99.49423,20.06187],[99.49409,20.0622],[99.49394,20.06254],[99.4938,20.06287],[99.49365,20.06321],[99.4935,20.06354],[99.49335,20.06388],[99.4932,20.06421],[99.49305,20.06455],[99.49291,20.06488],[99.49276,20.06522],[99.49262,20.06555],[99.49247,20.06589],[99.49234,20.06622],[99.4922,20.06656],[99.49207,20.0669],[99.49195,20.06724],[99.49182,20.06758],[99.49171,20.06793],[99.4916,20.06827],[99.4915,20.06861],[99.49141,20.06897],[99.49133,20.06932],[99.49125,20.06968],[99.49119,20.07004],[99.49114,20.0704],[99.4911,20.07076],[99.49106,20.07113],[99.49104,20.07149],[99.49103,20.07186],[99.49103,20.07222],[99.49104,20.07258],[99.49106,20.07293],[99.49108,20.07329],[99.49112,20.07365],[99.49117,20.07402],[99.49123,20.07438],[99.4913,20.07475],[99.49138,20.07511],[99.49147,20.07547],[99.49157,20.07582],[99.49169,20.07616],[99.49183,20.0765],[99.49197,20.07683],[99.49214,20.07715],[99.49232,20.07745],[99.49253,20.07775],[99.49275,20.07803],[99.493,20.07831],[99.49325,20.07858],[99.49352,20.07885],[99.49379,20.07911],[99.49407,20.07937],[99.49435,20.07963],[99.49462,20.07989],[99.49488,20.08016],[99.49514,20.08043],[99.49674,20.08127],[99.49865,20.08228],[99.49985,20.08315],[99.50188,20.08442],[99.50375,20.0854],[99.5061,20.08639],[99.50772,20.08728],[99.50896,20.08814],[99.50986,20.08834],[99.51072,20.08829],[99.51128,20.08838],[99.51181,20.08855],[99.51253,20.08888],[99.51428,20.08975],[99.51574,20.09087],[99.51708,20.09149],[99.51894,20.09235],[99.52054,20.09265],[99.52295,20.09283],[99.52376,20.09308],[99.52451,20.09342],[99.52503,20.09382],[99.52545,20.09401],[99.52586,20.09396],[99.52646,20.09371],[99.52737,20.09364],[99.52842,20.09376],[99.52972,20.09409],[99.53055,20.09444],[99.53095,20.0947],[99.53122,20.09505],[99.5315,20.09589],[99.53168,20.09615],[99.53201,20.09648],[99.53248,20.09668],[99.53407,20.0968],[99.53472,20.09697],[99.53515,20.09724],[99.53598,20.09819],[99.53637,20.09856],[99.53695,20.0988],[99.53766,20.09889],[99.53792,20.09913],[99.53803,20.09967],[99.53844,20.0999],[99.53896,20.09989],[99.53955,20.09935],[99.53997,20.09942],[99.54077,20.10058],[99.54136,20.10101],[99.54223,20.10112],[99.54261,20.10125],[99.54303,20.10172],[99.54346,20.10195],[99.5439,20.1019],[99.54479,20.10168],[99.54537,20.10167],[99.54654,20.10197],[99.54815,20.10268],[99.54891,20.10303],[99.54938,20.10338],[99.54958,20.10381],[99.54992,20.10394],[99.5511,20.10369],[99.55157,20.10356],[99.55188,20.10356],[99.55215,20.10366],[99.55247,20.10396],[99.55279,20.10404],[99.55311,20.10395],[99.5537,20.10359],[99.55471,20.10274],[99.55537,20.10234],[99.5562,20.10191],[99.55648,20.10171],[99.55677,20.1014],[99.55749,20.10017],[99.55803,20.09979],[99.55867,20.09956],[99.55915,20.09956],[99.55946,20.09965],[99.55975,20.09993],[99.56027,20.10063],[99.56088,20.10088],[99.56135,20.1011],[99.56183,20.10148],[99.56239,20.10242],[99.56286,20.10303],[99.56346,20.10351],[99.56466,20.10403],[99.56628,20.10472],[99.56958,20.1067],[99.5703,20.10732],[99.5711,20.10802],[99.57087,20.10867],[99.57109,20.1094],[99.5715,20.11027],[99.57175,20.11142],[99.57159,20.11264],[99.57154,20.11359],[99.5717,20.11421],[99.5724,20.11527],[99.57284,20.11622],[99.57302,20.11755],[99.57302,20.11885],[99.57207,20.1205],[99.57144,20.12169],[99.57052,20.12247],[99.5682,20.12367],[99.56672,20.12414],[99.56387,20.12447],[99.56254,20.12469],[99.56219,20.12483],[99.56199,20.12504],[99.56146,20.12602],[99.56075,20.12723],[99.55975,20.12797],[99.55725,20.12957],[99.55477,20.13026],[99.55363,20.1303],[99.5527,20.13019],[99.55133,20.12971],[99.55071,20.12981],[99.54969,20.13011],[99.54882,20.13019],[99.54677,20.12963],[99.54521,20.12945],[99.54411,20.12966],[99.54238,20.13107],[99.54082,20.13261],[99.53969,20.13303],[99.53829,20.13306],[99.53614,20.13294],[99.53374,20.13361],[99.53177,20.13458],[99.52977,20.13496],[99.52838,20.13544],[99.52725,20.13669],[99.5258,20.13715],[99.5242,20.13704],[99.52217,20.13718],[99.52018,20.13798],[99.51883,20.13936],[99.51831,20.1406],[99.51771,20.14213],[99.51707,20.14325],[99.51616,20.14427],[99.51488,20.14533],[99.51383,20.14628],[99.51302,20.1467],[99.51284,20.14701]]]},"properties":{"TAM_CODE":"501005","TAM_NAM_T":"ท่าตอน","AMP_NAM_T":"แม่อาย","PROV_NAM_T":"เชียงใหม่"}}]}